$$SOE
2459580.500000000, A.D. 2022-Jan-01 00:00:00.0000, -1.173608800848883E+08, 3.029950075625019E+08, -5.539405267450341E+07,
2459587.500000000, A.D. 2022-Jan-08 00:00:00.0000, -1.302896647806320E+08, 3.039373190615997E+08, -5.580225139798678E+07,
2459594.500000000, A.D. 2022-Jan-15 00:00:00.0000, -1.430509020859859E+08, 3.044883542285607E+08, -5.613861339858722E+07,
2459601.500000000, A.D. 2022-Jan-22 00:00:00.0000, -1.556372417054287E+08, 3.046667530044830E+08, -5.640627348660021E+07,
2459608.500000000, A.D. 2022-Jan-29 00:00:00.0000, -1.680424549424313E+08, 3.044902829082641E+08, -5.660823388960119E+07,
2459615.500000000, A.D. 2022-Feb-05 00:00:00.0000, -1.802613025228926E+08, 3.039758598611384E+08, -5.674736534078448E+07,
2459622.500000000, A.D. 2022-Feb-12 00:00:00.0000, -1.922894153385552E+08, 3.031395733536243E+08, -5.682640968463964E+07,
2459629.500000000, A.D. 2022-Feb-19 00:00:00.0000, -2.041231879523864E+08, 3.019967166364465E+08, -5.684798336577190E+07,
2459636.500000000, A.D. 2022-Feb-26 00:00:00.0000, -2.157596847630700E+08, 3.005618198865497E+08, -5.681458148217697E+07,
2459643.500000000, A.D. 2022-Mar-05 00:00:00.0000, -2.271965573527187E+08, 2.988486846913721E+08, -5.672858225947741E+07,
2459650.500000000, A.D. 2022-Mar-12 00:00:00.0000, -2.384319715909687E+08, 2.968704189821069E+08, -5.659225180664959E+07,
2459657.500000000, A.D. 2022-Mar-19 00:00:00.0000, -2.494645433316424E+08, 2.946394718330125E+08, -5.640774902868585E+07,
2459664.500000000, A.D. 2022-Mar-26 00:00:00.0000, -2.602932816954161E+08, 2.921676676642251E+08, -5.617713059955719E+07,
2459671.500000000, A.D. 2022-Apr-02 00:00:00.0000, -2.709175389891443E+08, 2.894662394583019E+08, -5.590235593086999E+07,
2459678.500000000, A.D. 2022-Apr-09 00:00:00.0000, -2.813369662035841E+08, 2.865458607580909E+08, -5.558529210432240E+07,
2459685.500000000, A.D. 2022-Apr-16 00:00:00.0000, -2.915514730339490E+08, 2.834166769383751E+08, -5.522771870586996E+07,
2459692.500000000, A.D. 2022-Apr-23 00:00:00.0000, -3.015611930744125E+08, 2.800883367334677E+08, -5.483133232749538E+07,
2459699.500000000, A.D. 2022-Apr-30 00:00:00.0000, -3.113664555104368E+08, 2.765700217209339E+08, -5.439775072921427E+07,
2459706.500000000, A.D. 2022-May-07 00:00:00.0000, -3.209677597599614E+08, 2.728704717661918E+08, -5.392851709002960E+07,
2459713.500000000, A.D. 2022-May-14 00:00:00.0000, -3.303657512464901E+08, 2.689980094665012E+08, -5.342510421847703E+07,
2459720.500000000, A.D. 2022-May-21 00:00:00.0000, -3.395611999629015E+08, 2.649605643760474E+08, -5.288891847220947E+07,
2459727.500000000, A.D. 2022-May-28 00:00:00.0000, -3.485549819754979E+08, 2.607656960927327E+08, -5.232130342214477E+07,
2459734.500000000, A.D. 2022-Jun-04 00:00:00.0000, -3.573480632998133E+08, 2.564206159415643E+08, -5.172354331485670E+07,
2459741.500000000, A.D. 2022-Jun-11 00:00:00.0000, -3.659414857474544E+08, 2.519322073104110E+08, -5.109686635070909E+07,
2459748.500000000, A.D. 2022-Jun-18 00:00:00.0000, -3.743363544804217E+08, 2.473070447092862E+08, -5.044244778602494E+07,
2459755.500000000, A.D. 2022-Jun-25 00:00:00.0000, -3.825338270457751E+08, 2.425514115802796E+08, -4.976141287146639E+07,
2459762.500000000, A.D. 2022-Jul-02 00:00:00.0000, -3.905351035826334E+08, 2.376713168535217E+08, -4.905483965161320E+07,
2459769.500000000, A.D. 2022-Jul-09 00:00:00.0000, -3.983414176580299E+08, 2.326725104868187E+08, -4.832376165466611E+07,
2459776.500000000, A.D. 2022-Jul-16 00:00:00.0000, -4.059540276521185E+08, 2.275604991309847E+08, -4.756917038645612E+07,
2459783.500000000, A.D. 2022-Jul-23 00:00:00.0000, -4.133742107735702E+08, 2.223405620563582E+08, -4.679201742875157E+07,
2459790.500000000, A.D. 2022-Jul-30 00:00:00.0000, -4.206032595175755E+08, 2.170177640435785E+08, -4.599321643165129E+07,
2459797.500000000, A.D. 2022-Aug-06 00:00:00.0000, -4.276424768738483E+08, 2.115969659404864E+08, -4.517364528418706E+07,
2459804.500000000, A.D. 2022-Aug-13 00:00:00.0000, -4.344931710255508E+08, 2.060828356885306E+08, -4.433414816919670E+07,
2459811.500000000, A.D. 2022-Aug-20 00:00:00.0000, -4.411566510384809E+08, 2.004798593628963E+08, -4.347553740688373E+07,
2459818.500000000, A.D. 2022-Aug-27 00:00:00.0000, -4.476342234101930E+08, 1.947923515462461E+08, -4.259859515961988E+07,
2459825.500000000, A.D. 2022-Sep-03 00:00:00.0000, -4.539271891751294E+08, 1.890244649691158E+08, -4.170407503606989E+07,
2459832.500000000, A.D. 2022-Sep-10 00:00:00.0000, -4.600368414257477E+08, 1.831801994815596E+08, -4.079270360685079E+07,
2459839.500000000, A.D. 2022-Sep-17 00:00:00.0000, -4.659644631756755E+08, 1.772634103923596E+08, -3.986518184014128E+07,
2459846.500000000, A.D. 2022-Sep-24 00:00:00.0000, -4.717113254644991E+08, 1.712778161602325E+08, -3.892218647216216E+07,
2459853.500000000, A.D. 2022-Oct-01 00:00:00.0000, -4.772786854285755E+08, 1.652270054471120E+08, -3.796437134130231E+07,
2459860.500000000, A.D. 2022-Oct-08 00:00:00.0000, -4.826677838993737E+08, 1.591144440851558E+08, -3.699236868539061E+07,
2459867.500000000, A.D. 2022-Oct-15 00:00:00.0000, -4.878798434347323E+08, 1.529434831840305E+08, -3.600679022350970E+07,
2459874.500000000, A.D. 2022-Oct-22 00:00:00.0000, -4.929160689429752E+08, 1.467173667210326E+08, -3.500822796488014E+07,
2459881.500000000, A.D. 2022-Oct-29 00:00:00.0000, -4.977776483828359E+08, 1.404392360470259E+08, -3.399725519062653E+07,
2459888.500000000, A.D. 2022-Nov-05 00:00:00.0000, -5.024657514204521E+08, 1.341121340739343E+08, -3.297442758090442E+07,
2459895.500000000, A.D. 2022-Nov-12 00:00:00.0000, -5.069815279908872E+08, 1.277390104325926E+08, -3.194028420722732E+07,
2459902.500000000, A.D. 2022-Nov-19 00:00:00.0000, -5.113261074692487E+08, 1.213227266672246E+08, -3.089534840559661E+07,
2459909.500000000, A.D. 2022-Nov-26 00:00:00.0000, -5.155005981761692E+08, 1.148660610887069E+08, -2.984012859022503E+07,
2459916.500000000, A.D. 2022-Dec-03 00:00:00.0000, -5.195060870394887E+08, 1.083717132930186E+08, -2.877511902691076E+07,
2459923.500000000, A.D. 2022-Dec-10 00:00:00.0000, -5.233436393557444E+08, 1.018423083799853E+08, -2.770080057135917E+07,
2459930.500000000, A.D. 2022-Dec-17 00:00:00.0000, -5.270142986171953E+08, 9.528040086254305E+07, -2.661764137923999E+07,
2459937.500000000, A.D. 2022-Dec-24 00:00:00.0000, -5.305190862865880E+08, 8.868847821490879E+07, -2.552609760570892E+07,
2459944.500000000, A.D. 2022-Dec-31 00:00:00.0000, -5.338590011545227E+08, 8.206896418047228E+07, -2.442661412055795E+07,
2459951.500000000, A.D. 2023-Jan-07 00:00:00.0000, -5.370350181499360E+08, 7.542422281413226E+07, -2.331962517359467E+07,
2459958.500000000, A.D. 2023-Jan-14 00:00:00.0000, -5.400480885649803E+08, 6.875656376717672E+07, -2.220555479113990E+07,
2459965.500000000, A.D. 2023-Jan-21 00:00:00.0000, -5.428991423348372E+08, 6.206824565294158E+07, -2.108481710567598E+07,
2459972.500000000, A.D. 2023-Jan-28 00:00:00.0000, -5.455890887002454E+08, 5.536147730871785E+07, -1.995781697270819E+07,
2459979.500000000, A.D. 2023-Feb-04 00:00:00.0000, -5.481188154561404E+08, 4.863841999145264E+07, -1.882495060961316E+07,
2459986.500000000, A.D. 2023-Feb-11 00:00:00.0000, -5.504891885775830E+08, 4.190119032205597E+07, -1.768660610899938E+07,
2459993.500000000, A.D. 2023-Feb-18 00:00:00.0000, -5.527010522835571E+08, 3.515186316343438E+07, -1.654316388946010E+07,
2460000.500000000, A.D. 2023-Feb-25 00:00:00.0000, -5.547552292733109E+08, 2.839247427882458E+07, -1.539499712228616E+07,
2460007.500000000, A.D. 2023-Mar-04 00:00:00.0000, -5.566525210303199E+08, 2.162502279718764E+07, -1.424247214304626E+07,
2460014.500000000, A.D. 2023-Mar-11 00:00:00.0000, -5.583937081625580E+08, 1.485147349353701E+07, -1.308594885157280E+07,
2460021.500000000, A.D. 2023-Mar-18 00:00:00.0000, -5.599795507295169E+08, 8.073758841547068E+06, -1.192578110959235E+07,
2460028.500000000, A.D. 2023-Mar-25 00:00:00.0000, -5.614107883504074E+08, 1.293780797555157E+06, -1.076231715931899E+07,
2460035.500000000, A.D. 2023-Apr-01 00:00:00.0000, -5.626881396669866E+08, -5.486587284820188E+06, -9.595900070563510E+06,
2460042.500000000, A.D. 2023-Apr-08 00:00:00.0000, -5.638123017746756E+08, -1.226549737921627E+07, -8.426868060552107E+06,
2460049.500000000, A.D. 2023-Apr-15 00:00:00.0000, -5.647839519581262E+08, -1.904112325170228E+07, -7.255554563292702E+06,
2460056.500000000, A.D. 2023-Apr-22 00:00:00.0000, -5.656037499222915E+08, -2.581165971370465E+07, -6.082288464683525E+06,
2460063.500000000, A.D. 2023-Apr-29 00:00:00.0000, -5.662723377836335E+08, -3.257532240438583E+07, -4.907394570843494E+06,
2460070.500000000, A.D. 2023-May-06 00:00:00.0000, -5.667903395804096E+08, -3.933034631639618E+07, -3.731194003343245E+06,
2460077.500000000, A.D. 2023-May-13 00:00:00.0000, -5.671583612780272E+08, -4.607498395423876E+07, -2.554004505588476E+06,
2460084.500000000, A.D. 2023-May-20 00:00:00.0000, -5.673769910349045E+08, -5.280750361198490E+07, -1.376140722846050E+06,
2460091.500000000, A.D. 2023-May-27 00:00:00.0000, -5.674467995345974E+08, -5.952618779548100E+07, -1.979144769214392E+05,
2460098.500000000, A.D. 2023-Jun-03 00:00:00.0000, -5.673683403255826E+08, -6.622933175930241E+07, 9.803649604961127E+05,
2460105.500000000, A.D. 2023-Jun-10 00:00:00.0000, -5.671421501442193E+08, -7.291524216907465E+07, 2.158390591620930E+06,
2460112.500000000, A.D. 2023-Jun-17 00:00:00.0000, -5.667687491318134E+08, -7.958223594641219E+07, 3.335857399504442E+06,
2460119.500000000, A.D. 2023-Jun-24 00:00:00.0000, -5.662486406262945E+08, -8.622863923789148E+07, 4.512462012434281E+06,
2460126.500000000, A.D. 2023-Jul-01 00:00:00.0000, -5.655823102758899E+08, -9.285278567673375E+07, 5.687902369459156E+06,
2460133.500000000, A.D. 2023-Jul-08 00:00:00.0000, -5.647702261491032E+08, -9.945301311192729E+07, 6.861877607037216E+06,
2460140.500000000, A.D. 2023-Jul-15 00:00:00.0000, -5.638128411183875E+08, -1.060276616316516E+08, 8.034088051980674E+06,
$$EOE